OBJECT_NAME,OBJECT_ID,EPOCH,MEAN_MOTION,ECCENTRICITY,INCLINATION,RA_OF_ASC_NODE,ARG_OF_PERICENTER,MEAN_ANOMALY,EPHEMERIS_TYPE,CLASSIFICATION_TYPE,NORAD_CAT_ID,ELEMENT_SET_NO,REV_AT_EPOCH,BSTAR,MEAN_MOTION_DOT,MEAN_MOTION_DDOT
SNIPE 2,2023-072C,2026-06-05T23:58:12.402624,15.46287065,.0005329,97.5256,5.6195,51.2118,308.9606,0,U,56745,999,16851,.76994043E-3,.37986E-3,0
2023-072G,2023-072G,2026-06-05T23:04:07.709376,15.49921147,.00040998,97.4919,4.3712,43.6003,316.5571,0,U,56749,999,16872,.6453909E-3,.36095E-3,0
GEISAT PRECURSOR,2023-084C,2026-06-05T22:30:56.743200,15.34496658,.00060523,97.6215,297.5234,38.2308,321.9362,0,U,56934,999,16580,.27989321E-3,.9275E-4,0
BLACKJACK ACES-3,2023-084U,2026-06-05T20:03:01.974528,15.18403346,.0003497,97.6203,291.9424,64.0061,296.1532,0,U,56950,999,16544,.33158694E-3,.6753E-4,0
BLACKJACK ACES-2,2023-084Z,2026-06-05T20:12:40.453632,15.18468388,.00017152,97.6201,292.0326,74.3684,285.7739,0,U,56955,999,16545,.43456572E-3,.889E-4,0
BLACKJACK ACES-1,2023-084AA,2026-06-05T19:55:32.691936,15.18457140,.0001337,97.6191,291.7953,96.3572,263.7814,0,U,56956,999,11517,.42472757E-3,.8684E-4,0
ION SCV-011,2023-084AB,2026-06-05T11:32:55.049280,15.28727657,.00085043,98.1383,342.6767,80.7666,279.4533,0,U,56957,999,16402,.20950096E-3,.5769E-4,0
GHOST-3,2023-084AC,2026-06-05T09:30:47.976768,15.47484128,.00058144,97.6207,304.3407,344.0484,16.0581,0,U,56958,999,16619,.34776137E-3,.17782E-3,0
TOMORROW-R2,2023-084AG,2026-06-05T10:26:23.481600,15.98648472,.00057875,97.5967,319.0228,249.1830,110.8828,0,U,56962,999,16717,.67289098E-3,.315904E-2,.43227792E-4
AFR-1,2023-084AJ,2026-06-05T23:20:10.092192,15.28459084,.00109739,97.6264,293.3954,26.2184,333.9609,0,U,56964,999,16551,.205158E-3,.5613E-4,0
METEOR-M2 3,2023-091A,2026-06-05T23:55:42.926304,14.24045862,.00037066,98.6086,212.2038,185.7797,174.3340,0,U,57166,999,15292,.19482987E-4,.2E-7,0
UMKA 1 (RS40S),2023-091G,2026-06-05T21:47:39.927264,15.20685607,.00136318,97.5050,215.6495,153.3126,206.8814,0,U,57172,999,16229,.38591218E-3,.8433E-4,0
2023-091H,2023-091H,2026-06-05T22:09:05.460768,15.28385663,.00108894,97.5049,220.0256,147.6287,212.5623,0,U,57173,999,16258,.56238665E-3,.1551E-3,0
2023-091J,2023-091J,2026-06-05T21:15:32.510880,15.13849355,.00133197,97.5057,210.1436,180.0117,180.1116,0,U,57174,999,16192,.27468648E-3,.491E-4,0
CUBEBEL 2 (EU11S),2023-091K,2026-06-05T22:15:39.856896,15.28877240,.0010885,97.5051,220.0460,149.2822,210.9057,0,U,57175,999,16258,.62240404E-3,.17438E-3,0
SITRO-AIS 5 (KATYS),2023-091L,2026-06-05T22:43:26.442912,15.29191227,.00125825,97.5060,220.7415,138.3399,221.8802,0,U,57176,999,16262,.58339073E-3,.16506E-3,0
ZORKIY-2M 1,2023-091M,2026-06-05T21:28:53.139072,15.20753037,.00142425,97.5091,215.8971,150.7091,209.4946,0,U,57177,999,16228,.4268136E-3,.9356E-4,0
CUBESX-HSE 3 (RS42S),2023-091N,2026-06-05T22:23:02.085792,15.30923344,.0012028,97.5091,222.3799,129.4224,230.8084,0,U,57178,999,16270,.60915982E-3,.18186E-3,0
MONITOR-3 (RS58S),2023-091Q,2026-06-05T22:22:50.773440,15.27608657,.00129206,97.5083,220.2977,135.7386,224.4889,0,U,57180,999,16257,.54794522E-3,.14764E-3,0
MONITOR-4 (RS57S),2023-091S,2026-06-05T21:53:38.372352,15.27706119,.0012908,97.5077,220.2479,136.1393,224.0874,0,U,57182,999,16257,.52343423E-3,.14141E-3,0
MONITOR-2 (RS39S),2023-091U,2026-06-05T21:58:01.652160,15.18803066,.00122029,97.5073,215.2716,145.9449,214.2571,0,U,57184,999,16224,.32017887E-3,.6607E-4,0
SVYATOBOR 1 (RS60S),2023-091X,2026-06-05T21:58:41.397888,15.26419946,.00108146,97.5089,220.6719,128.3872,231.8340,0,U,57187,999,16259,.46442156E-3,.12046E-3,0
HORS 1,2023-091Y,2026-06-05T21:38:58.174080,15.26520921,.00102505,97.5066,220.4220,127.7723,232.4445,0,U,57188,999,16259,.46757733E-3,.12164E-3,0
VIZARD-METEO (RS38S),2023-091Z,2026-06-05T22:35:33.289728,15.35659105,.00087529,97.5091,226.2043,110.9917,249.2264,0,U,57189,999,16296,.64883114E-3,.2248E-3,0
SITRO-AIS 6 (CHIRKIN),2023-091AC,2026-06-05T21:36:01.375488,15.25715354,.0012841,97.5068,219.8726,141.3683,218.8476,0,U,57192,999,16256,.53147152E-3,.13518E-3,0
SITRO-AIS 8 (ANOKHIN),2023-091AD,2026-06-05T22:01:56.201376,15.31824198,.00117821,97.5056,222.2555,134.5652,225.6553,0,U,57193,999,16272,.63196427E-3,.19407E-3,0
SITRO-AIS 7 (FARTUSHNIY),2023-091AE,2026-06-05T21:37:15.479040,15.25409206,.00126609,97.5066,219.7044,142.2534,217.9594,0,U,57194,999,16255,.53502475E-3,.13483E-3,0
AVION KALUGA 650,2023-091AF,2026-06-05T21:46:19.888032,15.20230161,.00114296,97.5090,216.5301,143.7206,216.4806,0,U,57195,999,16231,.35005213E-3,.7535E-4,0
HORS 2,2023-091AG,2026-06-05T22:16:18.449184,15.31595350,.0009533,97.5087,223.8064,121.0349,239.1829,0,U,57196,999,16280,.6177588E-3,.18819E-3,0
A-SEANSAT-PG1,2023-091AH,2026-06-05T22:36:13.885632,15.36559745,.00086334,97.5080,226.2865,118.0349,242.1770,0,U,57197,999,16298,.68154086E-3,.24315E-3,0
SITRO-AIS 10 (BURDAEV),2023-091AK,2026-06-05T22:21:20.412864,15.38173139,.00079826,97.5080,227.2085,113.0132,247.1955,0,U,57199,999,16303,.75868254E-3,.28535E-3,0
SITRO-AIS 9 (SHCHUKIN),2023-091AM,2026-06-05T22:54:16.822368,15.37699627,.00081813,97.5078,226.9707,113.4471,246.7634,0,U,57201,999,16302,.75286468E-3,.27883E-3,0
UTMN 2 (RS27S),2023-091AP,2026-06-05T22:57:15.374880,15.31769519,.000946,97.5087,224.0242,117.1138,243.1069,0,U,57203,999,16282,.56735965E-3,.17368E-3,0
SITRO-AIS 12 (SMIRENNIY),2023-091AQ,2026-06-05T22:43:49.539360,15.37987942,.00078617,97.5092,227.4235,108.3438,251.8662,0,U,57204,999,16304,.73588754E-3,.27505E-3,0
SITRO-AIS 11 (SHEFFER),2023-091AU,2026-06-05T21:33:54.263808,15.38400454,.00077284,97.5089,227.6131,108.4906,251.7179,0,U,57208,999,16305,.748267E-3,.28348E-3,0
H2SAT (HEINRICH HERTZ),2023-093A,2026-06-04T03:17:58.373952,1.00272490,.00009749,0.0448,123.4904,332.0680,207.2004,0,U,57213,999,1078,0,.14E-6,0
KUZGTU 1 (RS47S),2023-091AV,2026-06-05T21:56:00.986784,15.29597552,.00122585,97.5063,221.2811,132.7772,227.4502,0,U,57217,999,16265,.60712146E-3,.17396E-3,0
QIANKUN-1,2023-103B,2026-06-04T17:21:23.780160,16.07676952,.00255273,96.1570,201.4333,146.8008,213.4886,0,U,57422,999,16529,.25732611E-4,.21052E-3,.1855709E-5
FENGYUN 3F,2023-111A,2026-06-05T23:33:32.508864,14.19937195,.00015646,98.6836,227.1988,101.2558,258.8795,0,U,57490,999,14727,.45566129E-4,.53E-6,0
METEOR 2-1 DEB,1975-064F,2026-05-27T08:46:58.329696,14.29312775,.00089226,81.2776,20.0937,110.2601,249.9540,0,U,57492,999,40001,.26148689E-2,.6671E-4,0
HJ-2F,2023-116A,2026-06-05T22:42:23.300064,15.22156490,.00105683,97.3847,162.3621,84.4711,275.7731,0,U,57519,999,15704,.41567625E-3,.9484E-4,0
XRISM,2023-137A,2026-06-05T21:43:27.847488,15.12365717,.00078576,31.0020,72.6760,211.5991,148.4176,0,U,57800,999,15115,.30603939E-3,.5543E-4,0
METEOR-M2 4,2024-039A,2026-06-05T23:58:37.438752,14.22428442,.00066243,98.7006,116.4381,193.4842,166.6160,0,U,59051,999,11767,.35257178E-4,.35E-6,0
GRBBETA,2024-128C,2026-06-05T20:53:56.730336,15.06558818,.00421256,61.9900,255.9673,132.3228,228.1447,0,U,60237,999,10456,.37239168E-3,.5433E-4,0
TRANSPORTER-11 OBJECT A,2024-149A,2026-06-05T11:14:00.491136,15.32708766,.00018123,97.3729,236.4359,249.1666,110.9382,0,U,60468,999,10026,.28468981E-3,.8916E-4,0
WARATAH SEED-1,2024-149B,2026-06-05T10:45:38.731680,15.35638944,.00004199,97.3685,237.0150,223.9423,136.1788,0,U,60469,999,10031,.36884816E-3,.12707E-3,0
PHISAT 2,2024-149C,2026-06-05T22:27:57.225600,15.30890534,.00000991,97.3752,236.2165,37.0967,323.0281,0,U,60470,999,10027,.29704796E-3,.8792E-4,0
LEMUR-2-TOMATOKECHUP,2024-149D,2026-06-05T23:12:01.802592,15.35794505,.00004047,97.3796,238.9874,214.8468,145.2749,0,U,60471,999,10044,.42518168E-3,.14737E-3,0
CONNECTA IOT-1,2024-149E,2026-06-05T19:10:14.872800,15.23451124,.00013599,97.3754,233.2832,14.6544,345.4732,0,U,60472,999,10006,.1986439E-3,.4663E-4,0
LOPEN,2024-149F,2026-06-05T22:49:12.249408,15.39359146,.00002748,97.3773,240.2336,23.4230,336.7028,0,U,60473,999,10053,.50816685E-3,.19797E-3,0
ROCK,2024-149G,2026-06-05T11:34:34.562208,15.39336501,.00002163,97.3770,239.7785,315.8108,44.3120,0,U,60474,999,10046,.39281232E-3,.15264E-3,0
CONNECTA IOT-3,2024-149H,2026-06-05T22:50:19.400352,15.23465319,.0001711,97.3730,233.1899,334.6309,25.4844,0,U,60475,999,10009,.22650773E-3,.533E-4,0
QUBE,2024-149J,2026-06-04T16:31:57.158400,15.46621398,.0000932,97.3776,241.8868,246.7233,113.3918,0,U,60476,999,10053,.51803E-3,.25772E-3,0
WREN-1,2024-149L,2026-06-05T23:13:49.936512,15.41112865,.0002905,97.3761,240.9669,306.6213,53.4766,0,U,60478,999,10059,.69232583E-3,.28642E-3,0
TOMORROW-S1,2024-149M,2026-06-04T15:59:10.245120,15.32536144,.0001027,97.3748,236.1799,309.1986,50.9165,0,U,60479,999,10017,.27190577E-3,.8465E-4,0
FLOCK 4BE-18,2024-149N,2026-06-04T17:57:44.582688,15.41438467,.00023435,97.3724,239.3526,306.6206,53.4825,0,U,60480,999,10039,.44367395E-3,.18498E-3,0
FLOCK 4BE-7,2024-149P,2026-06-04T17:50:02.344416,15.39794674,.0001478,97.3757,238.7107,311.2455,48.8664,0,U,60481,999,10033,.59863E-3,.23684E-3,0
FLOCK 4BE-26,2024-149S,2026-06-05T11:37:29.805600,15.65371576,.00044267,97.3657,241.9476,225.6830,134.4067,0,U,60484,999,10063,.1161673E-2,.11695E-2,0
TOMORROW-S2,2024-149T,2026-06-05T19:21:47.624544,15.32580950,.00017147,97.3812,237.7945,344.9079,15.2112,0,U,60485,999,10034,.30799249E-3,.9614E-4,0
FLOCK 4BE-36,2024-149U,2026-06-05T23:01:53.680512,15.42371947,.00022121,97.3740,241.2568,318.9476,41.1605,0,U,60486,999,10062,.49259603E-3,.21204E-3,0
FLOCK 4BE-25,2024-149V,2026-06-05T23:12:51.478272,15.38542101,.00007019,97.3794,240.0446,317.9580,42.1611,0,U,60487,999,10051,.50040964E-3,.18978E-3,0
FLOCK 4BE-31,2024-149W,2026-06-05T00:40:07.567104,15.43602536,.00013577,97.3799,241.1385,342.0063,18.1137,0,U,60488,999,10050,.53562129E-3,.24043E-3,0
FLOCK 4BE-20,2024-149X,2026-06-05T11:16:06.681792,15.37741025,.00023029,97.3691,238.4527,320.4590,39.6487,0,U,60489,999,10041,.37070704E-3,.13669E-3,0
